IRIDIUM 106             
1 41917U 17003A   25262.53317493 -.00000014  00000+0 -12116-4 0  9996
2 41917  86.4026 201.5869 0002507  79.4306 280.7172 14.34217547454417
IRIDIUM 103             
1 41918U 17003B   25262.59025812  .00000140  00000+0  43022-4 0  9992
2 41918  86.4024 201.4636 0002474  95.1734 264.9745 14.34217921454449
IRIDIUM 109             
1 41919U 17003C   25262.59659838  .00000041  00000+0  75352-5 0  9996
2 41919  86.4024 201.5159 0002174  87.7951 272.3494 14.34218563454410
IRIDIUM 102             
1 41920U 17003D   25262.56488705  .00000237  00000+0  77544-4 0  9999
2 41920  86.4025 201.4590 0002117  83.9076 276.2361 14.34217774454491
IRIDIUM 105             
1 41921U 17003E   25262.46593757  .00000294  00000+0  97760-4 0  9998
2 41921  86.4046 170.0137 0002224  87.8252 272.3199 14.34208140456339
IRIDIUM 104             
1 41922U 17003F   25262.57757213  .00000022  00000+0  85975-6 0  9996
2 41922  86.4025 201.4916 0002102  94.4289 265.7147 14.34217183454480
IRIDIUM 114             
1 41923U 17003G   25262.58391547 -.00000010  00000+0 -10569-4 0  9996
2 41923  86.4027 201.4735 0002394  88.5193 271.6277 14.34217208454469
IRIDIUM 108             
1 41924U 17003H   25262.47266746 -.00000009  00000+0 -10263-4 0  9996
2 41924  86.4040 169.9063 0002200  79.2924 280.8520 14.34217654456305
